0 QUIKSCAT
1 25789U 99034A   13282.49219905  .00000059  00000-0  42199-4 0  7149
2 25789 098.6172 110.6714 0001134 062.3310 350.0102 14.27021330745101
0 QUIKSCAT
1 25789U 99034A   13283.61210458  .00000053  00000-0  39806-4 0  7154
2 25789 098.6170 111.7748 0001103 061.4992 340.8339 14.27021427745263
0 QUIKSCAT
1 25789U 99034A   13286.14919441  .00000038  00000-0  33590-4 0  7172
2 25789 098.6166 114.2748 0001003 059.6177 049.0365 14.27021963745621
0 QUIKSCAT
1 25789U 99034A   13287.46410650  .00000050  00000-0  38324-4 0  7181
2 25789 098.6165 115.5704 0000932 060.1291 319.7536 14.27022277745817
0 QUIKSCAT
1 25789U 99034A   13288.51574872  .00000086  00000-0  53292-4 0  7196
2 25789 098.6164 116.6065 0000898 059.8378 319.5536 14.27022613745968
0 QUIKSCAT
1 25789U 99034A   13289.57276542  .00000043  00000-0  35740-4 0  7209
2 25789 098.6164 117.6480 0000852 059.5796 346.9150 14.27022985746117
0 QUIKSCAT
1 25789U 99034A   13291.13304091  .00000046  00000-0  36716-4 0  7213
2 25789 098.6165 119.1853 0000794 059.3083 078.2036 14.27023284746336
0 QUIKSCAT
1 25789U 99034A   13292.51249885  .00000065  00000-0  44616-4 0  7225
2 25789 098.6166 120.5444 0000722 060.8275 319.3219 14.27023388746539
0 QUIKSCAT
1 25789U 99034A   13293.63989480  .00000072  00000-0  47466-4 0  7236
2 25789 098.6166 121.6552 0000681 060.5144 348.0945 14.27023649746699
0 QUIKSCAT
1 25789U 99034A   13295.12969692  .00000082  00000-0  51706-4 0  7249
2 25789 098.6166 123.1230 0000658 058.6365 079.1584 14.27024026746901
0 QUIKSCAT
1 25789U 99034A   13296.17651656  .00000092  00000-0  55541-4 0  7256
2 25789 098.6165 124.1545 0000642 057.3649 055.1845 14.27024240747053
